NORAD_CAT_ID,OBJECT_NAME,OBJECT_TYPE,EPOCH,MEAN_MOTION,ECCENTRICITY,INCLINATION,RA_OF_ASC_NODE,ARG_OF_PERICENTER,MEAN_ANOMALY,BSTAR,MEAN_MOTION_DOT,MEAN_MOTION_DDOT,TLE_LINE0,TLE_LINE1,TLE_LINE2,SEMIMAJOR_AXIS,PERIOD,APOGEE,PERIGEE,DECAYED
49160.0,STARLINK-3095,PAYLOAD,2024-07-08 21:24:49,14.98330834,0.0003104,69.9999,29.4329,269.3276,90.7527,7.9846e-05,8.6e-06,0.0,0 STARLINK-3095,1 49160U 21082AG  24190.89223523  .00000860  00000-0  79846-4 0  9995,2 49160  69.9999  29.4329 0003104 269.3276  90.7527 14.98330834155852,6950.19,96.107,574.213,569.898,0.0
49160.0,STARLINK-3095,PAYLOAD,2024-07-09 15:02:18,14.98328223,0.0003033,70.0001,27.5803,269.4419,90.6392,-1.7302e-05,-2.99e-06,0.0,0 STARLINK-3095,1 49160U 21082AG  24191.62659922 -.00000299  00000-0 -17302-4 0  9990,2 49160  70.0001  27.5803 0003033 269.4419  90.6392 14.98328223155966,6950.198,96.107,574.171,569.955,0.0
49160.0,STARLINK-3095,PAYLOAD,2024-07-09 19:50:42,14.98327576,0.0003038,70.0001,27.0753,269.42,90.6611,-1.9877e-05,-3.3e-06,0.0,0 STARLINK-3095,1 49160U 21082AG  24191.82687989 -.00000330  00000-0 -19877-4 0  9991,2 49160  70.0001  27.0753 0003038 269.4200  90.6611 14.98327576156008,6950.2,96.107,574.177,569.954,0.0
49160.0,STARLINK-3095,PAYLOAD,2024-07-09 21:26:50,14.98329102,0.0003029,70.0001,26.907,269.4473,90.6339,-2.3798e-06,-1.21e-06,0.0,0 STARLINK-3095,1 49160U 21082AG  24191.89363845 -.00000121  00000-0 -23798-5 0  9996,2 49160  70.0001  26.9070 0003029 269.4473  90.6339 14.98329102156004,6950.196,96.107,574.166,569.955,0.0
49160.0,STARLINK-3095,PAYLOAD,2024-07-10 11:52:03,14.98328003,0.0003005,70.0002,25.3921,269.5775,90.5039,-2.7905e-06,-1.26e-06,0.0,0 STARLINK-3095,1 49160U 21082AG  24192.49447930 -.00000126  00000-0 -27905-5 0  9990,2 49160  70.0002  25.3921 0003005 269.5775  90.5039 14.98328003156097,6950.199,96.107,574.153,569.976,0.0
49160.0,STARLINK-3095,PAYLOAD,2024-07-10 21:28:51,14.98331106,0.000302,70.0001,24.3822,269.8589,90.2224,1.12e-05,4.1e-07,0.0,0 STARLINK-3095,1 49160U 21082AG  24192.89503706  .00000041  00000-0  11200-4 0  9992,2 49160  70.0001  24.3822 0003020 269.8589  90.2224 14.98331106156156,6950.189,96.107,574.153,569.956,0.0
49160.0,STARLINK-3095,PAYLOAD,2024-07-10 23:04:59,14.98332552,0.0003032,70.0002,24.214,270.1116,89.9695,2.4646e-05,2.01e-06,0.0,0 STARLINK-3095,1 49160U 21082AG  24192.96179564  .00000201  00000-0  24646-4 0  9997,2 49160  70.0002  24.2140 0003032 270.1116  89.9695 14.98332552156178,6950.185,96.107,574.157,569.943,0.0
49160.0,STARLINK-3095,PAYLOAD,2024-07-11 13:30:11,14.98330304,0.000302,70.0003,22.7001,274.5844,85.497,6.3461e-05,6.64e-06,0.0,0 STARLINK-3095,1 49160U 21082AG  24193.56263613  .00000664  00000-0  63461-4 0  9994,2 49160  70.0003  22.7001 0003020 274.5844  85.4970 14.98330304156250,6950.192,96.107,574.156,569.958,0.0
49160.0,STARLINK-3095,PAYLOAD,2024-07-11 18:18:35,14.98330733,0.000303,70.0003,22.1952,274.6567,85.4246,6.5973e-05,6.94e-06,0.0,0 STARLINK-3095,1 49160U 21082AG  24193.76291585  .00000694  00000-0  65973-4 0  9998,2 49160  70.0003  22.1952 0003030 274.6567  85.4246 14.98330733156288,6950.191,96.107,574.162,569.95,0.0
49160.0,STARLINK-3095,PAYLOAD,2024-07-12 05:31:32,14.98330578,0.0002903,70.0005,21.0164,271.9207,88.1619,3.3005e-05,3.01e-06,0.0,0 STARLINK-3095,1 49160U 21082AG  24194.23023636  .00000301  00000-0  33005-4 0  9997,2 49160  70.0005  21.0164 0002903 271.9207  88.1619 14.98330578156362,6950.191,96.107,574.074,570.038,0.0
49160.0,STARLINK-3095,PAYLOAD,2024-07-12 21:32:53,14.98330692,0.0002945,70.0005,19.3338,266.4643,93.6179,2.0453e-05,1.51e-06,0.0,0 STARLINK-3095,1 49160U 21082AG  24194.89783604  .00000151  00000-0  20453-4 0  9993,2 49160  70.0005  19.3338 0002945 266.4643  93.6179 14.98330692156453,6950.191,96.107,574.103,570.009,0.0
49160.0,STARLINK-3095,PAYLOAD,2024-07-13 13:34:13,14.98330649,0.0002919,70.0005,17.6502,265.1838,94.8988,-1.6033e-05,-2.84e-06,0.0,0 STARLINK-3095,1 49160U 21082AG  24195.56543686 -.00000284  00000-0 -16033-4 0  9990,2 49160  70.0005  17.6502 0002919 265.1838  94.8988 14.98330649156565,6950.191,96.107,574.085,570.027,0.0
49160.0,STARLINK-3095,PAYLOAD,2024-07-13 21:34:53,14.98332484,0.0002953,70.0006,16.8085,266.6397,93.4424,5.5058e-06,-2.7e-07,0.0,0 STARLINK-3095,1 49160U 21082AG  24195.89923525 -.00000027  00000-0  55058-5 0  9995,2 49160  70.0006  16.8085 0002953 266.6397  93.4424 14.98332484156601,6950.185,96.107,574.103,569.998,0.0
49160.0,STARLINK-3095,PAYLOAD,2024-07-14 13:36:14,14.98328348,0.0003135,70.0002,15.1249,269.3927,90.6873,4.2827e-05,4.18e-06,0.0,0 STARLINK-3095,1 49160U 21082AG  24196.56683605  .00000418  00000-0  42827-4 0  9994,2 49160  70.0002  15.1249 0003135 269.3927  90.6873 14.98328348156705,6950.198,96.107,574.242,569.884,0.0
49160.0,STARLINK-3095,PAYLOAD,2024-07-14 20:00:46,14.98334826,0.0003129,70.0003,14.4515,269.4863,90.5937,5.8875e-05,6.1e-06,0.0,0 STARLINK-3095,1 49160U 21082AG  24196.83387152  .00000610  00000-0  58875-4 0  9996,2 49160  70.0003  14.4515 0003129 269.4863  90.5937 14.98334826156750,6950.178,96.107,574.218,569.868,0.0
49160.0,STARLINK-3095,PAYLOAD,2024-07-14 21:36:54,14.98335274,0.0003014,70.0007,14.2838,268.275,91.8064,7.7287e-05,8.29e-06,0.0,0 STARLINK-3095,1 49160U 21082AG  24196.90063076  .00000829  00000-0  77287-4 0  9990,2 49160  70.0007  14.2838 0003014 268.2750  91.8064 14.98335274156758,6950.177,96.107,574.136,569.947,0.0
49160.0,STARLINK-3095,PAYLOAD,2024-07-15 12:02:07,14.9833009,0.0003109,70.0003,12.7676,269.7056,90.3747,1.289e-05,6.1e-07,0.0,0 STARLINK-3095,1 49160U 21082AG  24197.50147542  .00000061  00000-0  12890-4 0  9995,2 49160  70.0003  12.7676 0003109 269.7056  90.3747 14.98330090156851,6950.193,96.107,574.218,569.897,0.0
49160.0,STARLINK-3095,PAYLOAD,2024-07-15 13:38:15,14.98329046,0.0003119,70.0003,12.5994,269.891,90.1891,8.7339e-07,-8.3e-07,0.0,0 STARLINK-3095,1 49160U 21082AG  24197.56823638 -.00000083  00000-0  87339-6 0  9995,2 49160  70.0003  12.5994 0003119 269.8910  90.1891 14.98329046156850,6950.196,96.107,574.229,569.893,0.0
49160.0,STARLINK-3095,PAYLOAD,2024-07-15 21:38:55,14.98334096,0.0003154,70.0006,11.7592,271.3868,88.693,5.6593e-05,5.82e-06,0.0,0 STARLINK-3095,1 49160U 21082AG  24197.90203151  .00000582  00000-0  56593-4 0  9994,2 49160  70.0006  11.7592 0003154 271.3868  88.6930 14.98334096156900,6950.18,96.107,574.237,569.853,0.0
49160.0,STARLINK-3095,PAYLOAD,2024-07-16 12:04:06,14.98415596,0.000329,70.0006,10.2435,279.7673,80.3114,-0.0014554,-0.00017454,0.0,0 STARLINK-3095,1 49160U 21082AG  24198.50285803 -.00017454  00000-0 -14554-2 0  9992,2 49160  70.0006  10.2435 0003290 279.7673  80.3114 14.98415596157007,6949.928,96.102,574.08,569.507,0.0
49160.0,STARLINK-3095,PAYLOAD,2024-07-16 13:40:16,14.98323951,0.0003127,70.0006,10.0755,271.5624,88.5176,0.00012947,1.452e-05,0.0,0 STARLINK-3095,1 49160U 21082AG  24198.56963567  .00001452  00000-0  12947-3 0  9992,2 49160  70.0006  10.0755 0003127 271.5624  88.5176 14.98323951157006,6950.212,96.107,574.25,569.903,0.0
49160.0,STARLINK-3095,PAYLOAD,2024-07-16 21:40:55,14.98340397,0.0003151,70.0007,9.2336,272.8853,87.1945,8.4418e-05,9.15e-06,0.0,0 STARLINK-3095,1 49160U 21082AG  24198.90342525  .00000915  00000-0  84418-4 0  9991,2 49160  70.0007   9.2336 0003151 272.8853  87.1945 14.98340397157054,6950.161,96.106,574.216,569.836,0.0
49160.0,STARLINK-3095,PAYLOAD,2024-07-17 12:06:09,14.98324647,0.0002716,70.002,7.7199,270.104,89.9808,2.7566e-05,2.36e-06,0.0,0 STARLINK-3095,1 49160U 21082AG  24199.50427790  .00000236  00000-0  27566-4 0  9993,2 49160  70.0020   7.7199 0002716 270.1040  89.9808 14.98324647157153,6950.209,96.107,573.962,570.187,0.0
49160.0,STARLINK-3095,PAYLOAD,2024-07-17 13:42:18,14.98318292,0.0002998,70.0013,7.55,274.5118,85.5699,-7.3156e-05,-9.65e-06,0.0,0 STARLINK-3095,1 49160U 21082AG  24199.57104454 -.00000965  00000-0 -73156-4 0  9996,2 49160  70.0013   7.5500 0002998 274.5118  85.5699 14.98318292157154,6950.229,96.108,574.178,570.01,0.0
49160.0,STARLINK-3095,PAYLOAD,2024-07-17 21:42:58,14.98323852,0.0002697,70.0016,6.7111,262.7087,97.3766,2.3161e-05,1.83e-06,0.0,0 STARLINK-3095,1 49160U 21082AG  24199.90483968  .00000183  00000-0  23161-4 0  9994,2 49160  70.0016   6.7111 0002697 262.7087  97.3766 14.98323852157206,6950.212,96.107,573.951,570.202,0.0
49160.0,STARLINK-3095,PAYLOAD,2024-07-18 12:08:09,14.98336805,0.0002816,70.0013,5.196,260.1659,99.9182,3.9763e-05,3.82e-06,0.0,0 STARLINK-3095,1 49160U 21082AG  24200.50567117  .00000382  00000-0  39763-4 0  9998,2 49160  70.0013   5.1960 0002816 260.1659  99.9182 14.98336805157301,6950.172,96.107,573.994,570.08,0.0
49160.0,STARLINK-3095,PAYLOAD,2024-07-18 13:44:18,14.98336854,0.0002707,70.0016,5.0271,262.7954,97.2897,5.0541e-05,5.1e-06,0.0,0 STARLINK-3095,1 49160U 21082AG  24200.57243088  .00000510  00000-0  50541-4 0  9993,2 49160  70.0016   5.0271 0002707 262.7954  97.2897 14.98336854157301,6950.172,96.107,573.918,570.155,0.0
49160.0,STARLINK-3095,PAYLOAD,2024-07-18 20:08:50,14.98336958,0.0002745,70.0016,4.3532,265.9015,94.183,7.4704e-05,7.99e-06,0.0,0 STARLINK-3095,1 49160U 21082AG  24200.83946967  .00000799  00000-0  74704-4 0  9994,2 49160  70.0016   4.3532 0002745 265.9015  94.1830 14.98336958157340,6950.171,96.107,573.944,570.129,0.0
49160.0,STARLINK-3095,PAYLOAD,2024-07-19 12:10:11,14.98325605,0.000271,70.0014,2.6696,266.8489,93.236,9.0137e-05,9.83e-06,0.0,0 STARLINK-3095,1 49160U 21082AG  24201.50707548  .00000983  00000-0  90137-4 0  9992,2 49160  70.0014   2.6696 0002710 266.8489  93.2360 14.98325605157454,6950.206,96.107,573.955,570.188,0.0
49160.0,STARLINK-3095,PAYLOAD,2024-07-19 13:46:19,14.98324227,0.0002733,70.0013,2.5013,267.054,93.0306,7.6431e-05,8.19e-06,0.0,0 STARLINK-3095,1 49160U 21082AG  24201.57383688  .00000819  00000-0  76431-4 0  9993,2 49160  70.0013   2.5013 0002733 267.0540  93.0306 14.98324227157458,6950.211,96.107,573.975,570.176,0.0
